$$SOE
2460154.500000000, A.D. 2023-Jul-29 00:00:00.0000, -4.766871371100305E+08, 6.421928023671103E+07, -7.313045515853810E+07,
2460161.500000000, A.D. 2023-Aug-05 00:00:00.0000, -4.800855318751236E+08, 5.528636782685208E+07, -7.568443895717131E+07,
2460168.500000000, A.D. 2023-Aug-12 00:00:00.0000, -4.832848517445255E+08, 4.633049499436440E+07, -7.820702906603138E+07,
2460175.500000000, A.D. 2023-Aug-19 00:00:00.0000, -4.862869466697536E+08, 3.735567901825058E+07, -8.069769266251823E+07,
2460182.500000000, A.D. 2023-Aug-26 00:00:00.0000, -4.890936983432708E+08, 2.836581985395592E+07, -8.315592811466324E+07,
2460189.500000000, A.D. 2023-Sep-02 00:00:00.0000, -4.917070163170265E+08, 1.936470331732697E+07, -8.558126358187105E+07,
2460196.500000000, A.D. 2023-Sep-09 00:00:00.0000, -4.941288343784670E+08, 1.035600414701233E+07, -8.797325567848769E+07,
2460203.500000000, A.D. 2023-Sep-16 00:00:00.0000, -4.963611070007157E+08, 1.343288877807885E+06, -9.033148821964261E+07,
2460210.500000000, A.D. 2023-Sep-23 00:00:00.0000, -4.984058054360892E+08, -7.669981196536724E+06, -9.265557106316729E+07,
2460217.500000000, A.D. 2023-Sep-30 00:00:00.0000, -5.002649137784696E+08, -1.668044578764277E+07, -9.494513891796184E+07,
2460224.500000000, A.D. 2023-Oct-07 00:00:00.0000, -5.019404273351748E+08, -2.568484065347435E+07, -9.719984994614065E+07,
2460231.500000000, A.D. 2023-Oct-14 00:00:00.0000, -5.034343522568889E+08, -3.467999523459378E+07, -9.941938452421764E+07,
2460238.500000000, A.D. 2023-Oct-21 00:00:00.0000, -5.047487031854169E+08, -4.366283128667200E+07, -1.016034443271823E+08,
2460245.500000000, A.D. 2023-Oct-28 00:00:00.0000, -5.058855003310686E+08, -5.263036025252349E+07, -1.037517514181168E+08,
2460252.500000000, A.D. 2023-Nov-04 00:00:00.0000, -5.068467672182444E+08, -6.157968014780281E+07, -1.058640472898828E+08,
2460259.500000000, A.D. 2023-Nov-11 00:00:00.0000, -5.076345289117697E+08, -7.050797256327620E+07, -1.079400919228327E+08,
2460266.500000000, A.D. 2023-Nov-18 00:00:00.0000, -5.082508104952096E+08, -7.941249984998019E+07, -1.099796628825703E+08,
2460273.500000000, A.D. 2023-Nov-25 00:00:00.0000, -5.086976357192777E+08, -8.829060246610193E+07, -1.119825544611138E+08,
2460280.500000000, A.D. 2023-Dec-02 00:00:00.0000, -5.089770257834594E+08, -9.713969649782938E+07, -1.139485768634698E+08,
2460287.500000000, A.D. 2023-Dec-09 00:00:00.0000, -5.090909981648265E+08, -1.059572714137818E+08, -1.158775554501748E+08,
2460294.500000000, A.D. 2023-Dec-16 00:00:00.0000, -5.090415651987761E+08, -1.147408880407186E+08, -1.177693300598355E+08,
2460301.500000000, A.D. 2023-Dec-23 00:00:00.0000, -5.088307320557659E+08, -1.234881760728785E+08, -1.196237543861261E+08,
2460308.500000000, A.D. 2023-Dec-30 00:00:00.0000, -5.084604954468653E+08, -1.321968300652497E+08, -1.214406951991631E+08,
2460315.500000000, A.D. 2024-Jan-06 00:00:00.0000, -5.079328448236803E+08, -1.408646062711823E+08, -1.232200314403680E+08,
2460322.500000000, A.D. 2024-Jan-13 00:00:00.0000, -5.072497628939275E+08, -1.494893221306812E+08, -1.249616536284811E+08,
2460329.500000000, A.D. 2024-Jan-20 00:00:00.0000, -5.064132242228531E+08, -1.580688553236826E+08, -1.266654634355387E+08,
2460336.500000000, A.D. 2024-Jan-27 00:00:00.0000, -5.054251939427043E+08, -1.666011417355054E+08, -1.283313731919739E+08,
2460343.500000000, A.D. 2024-Feb-03 00:00:00.0000, -5.042876269932174E+08, -1.750841732831374E+08, -1.299593053582084E+08,
2460350.500000000, A.D. 2024-Feb-10 00:00:00.0000, -5.030024676116872E+08, -1.835159958932494E+08, -1.315491920116218E+08,
2460357.500000000, A.D. 2024-Feb-17 00:00:00.0000, -5.015716489304165E+08, -1.918947076230437E+08, -1.331009743606494E+08,
2460364.500000000, A.D. 2024-Feb-24 00:00:00.0000, -4.999970926420949E+08, -2.002184569076430E+08, -1.346146022875298E+08,
2460371.500000000, A.D. 2024-Mar-02 00:00:00.0000, -4.982807087001106E+08, -2.084854409648607E+08, -1.360900339242435E+08,
2460378.500000000, A.D. 2024-Mar-09 00:00:00.0000, -4.964243949113268E+08, -2.166939044185327E+08, -1.375272352785765E+08,
2460385.500000000, A.D. 2024-Mar-16 00:00:00.0000, -4.944300360224441E+08, -2.248421379414874E+08, -1.389261799294446E+08,
2460392.500000000, A.D. 2024-Mar-23 00:00:00.0000, -4.922995023999802E+08, -2.329284758074450E+08, -1.402868486902733E+08,
2460399.500000000, A.D. 2024-Mar-30 00:00:00.0000, -4.900346505414920E+08, -2.409512923771662E+08, -1.416092290359921E+08,
2460406.500000000, A.D. 2024-Apr-06 00:00:00.0000, -4.876373251591248E+08, -2.489090008853925E+08, -1.428933145915821E+08,
2460413.500000000, A.D. 2024-Apr-13 00:00:00.0000, -4.851093592822044E+08, -2.568000536908104E+08, -1.441391049389452E+08,
2460420.500000000, A.D. 2024-Apr-20 00:00:00.0000, -4.824525733284924E+08, -2.646229413104695E+08, -1.453466054350176E+08,
2460427.500000000, A.D. 2024-Apr-27 00:00:00.0000, -4.796687746581723E+08, -2.723761907983855E+08, -1.465158269466898E+08,
2460434.500000000, A.D. 2024-May-04 00:00:00.0000, -4.767597575200294E+08, -2.800583641705395E+08, -1.476467855671658E+08,
2460441.500000000, A.D. 2024-May-11 00:00:00.0000, -4.737273031494502E+08, -2.876680569769740E+08, -1.487395023432866E+08,
2460448.500000000, A.D. 2024-May-18 00:00:00.0000, -4.705731799346269E+08, -2.952038969980823E+08, -1.497940030190002E+08,
2460455.500000000, A.D. 2024-May-25 00:00:00.0000, -4.672991436247936E+08, -3.026645430707281E+08, -1.508103177972138E+08,
2460462.500000000, A.D. 2024-Jun-01 00:00:00.0000, -4.639069375192829E+08, -3.100486841000572E+08, -1.517884811295450E+08,
2460469.500000000, A.D. 2024-Jun-08 00:00:00.0000, -4.603982923897474E+08, -3.173550382783578E+08, -1.527285315577384E+08,
2460476.500000000, A.D. 2024-Jun-15 00:00:00.0000, -4.567749257347708E+08, -3.245823519642582E+08, -1.536305115980831E+08,
2460483.500000000, A.D. 2024-Jun-22 00:00:00.0000, -4.530385413707051E+08, -3.317293970454768E+08, -1.544944674797331E+08,
2460490.500000000, A.D. 2024-Jun-29 00:00:00.0000, -4.491908314788983E+08, -3.387949686046023E+08, -1.553204486903410E+08,
2460497.500000000, A.D. 2024-Jul-06 00:00:00.0000, -4.452334784633983E+08, -3.457778853581585E+08, -1.561085077731314E+08,
2460504.500000000, A.D. 2024-Jul-13 00:00:00.0000, -4.411681546694197E+08, -3.526769900437534E+08, -1.568587003230637E+08,
2460511.500000000, A.D. 2024-Jul-20 00:00:00.0000, -4.369965219473924E+08, -3.594911486051405E+08, -1.575710849054735E+08,
2460518.500000000, A.D. 2024-Jul-27 00:00:00.0000, -4.327202317174553E+08, -3.662192491333580E+08, -1.582457229148538E+08,
2460525.500000000, A.D. 2024-Aug-03 00:00:00.0000, -4.283409252604793E+08, -3.728602009379040E+08, -1.588826784291389E+08,
2460532.500000000, A.D. 2024-Aug-10 00:00:00.0000, -4.238602340691855E+08, -3.794129337514494E+08, -1.594820180749885E+08,
2460539.500000000, A.D. 2024-Aug-17 00:00:00.0000, -4.192797802116125E+08, -3.858763970452254E+08, -1.600438109066536E+08,
2460546.500000000, A.D. 2024-Aug-24 00:00:00.0000, -4.146011766787490E+08, -3.922495594759542E+08, -1.605681283027756E+08,
2460553.500000000, A.D. 2024-Aug-31 00:00:00.0000, -4.098260276002896E+08, -3.985314085242637E+08, -1.610550438966166E+08,
2460560.500000000, A.D. 2024-Sep-07 00:00:00.0000, -4.049559279624494E+08, -4.047209501966209E+08, -1.615046335626715E+08,
2460567.500000000, A.D. 2024-Sep-14 00:00:00.0000, -3.999924627418044E+08, -4.108172077933840E+08, -1.619169753857362E+08,
2460574.500000000, A.D. 2024-Sep-21 00:00:00.0000, -3.949372074829063E+08, -4.168192193291162E+08, -1.622921493922316E+08,
2460581.500000000, A.D. 2024-Sep-28 00:00:00.0000, -3.897917308061134E+08, -4.227260368322180E+08, -1.626302372627247E+08,
2460588.500000000, A.D. 2024-Oct-05 00:00:00.0000, -3.845575951756768E+08, -4.285367275221744E+08, -1.629313223624306E+08,
2460595.500000000, A.D. 2024-Oct-12 00:00:00.0000, -3.792363562889673E+08, -4.342503738839393E+08, -1.631954898133760E+08,
2460602.500000000, A.D. 2024-Oct-19 00:00:00.0000, -3.738295628378751E+08, -4.398660729093826E+08, -1.634228264697294E+08,
2460609.500000000, A.D. 2024-Oct-26 00:00:00.0000, -3.683387566746131E+08, -4.453829353061906E+08, -1.636134208586485E+08,
2460616.500000000, A.D. 2024-Nov-02 00:00:00.0000, -3.627654731243060E+08, -4.508000848216646E+08, -1.637673631221773E+08,
2460623.500000000, A.D. 2024-Nov-09 00:00:00.0000, -3.571112413474830E+08, -4.561166576598480E+08, -1.638847449671825E+08,
2460630.500000000, A.D. 2024-Nov-16 00:00:00.0000, -3.513775847263268E+08, -4.613318019908645E+08, -1.639656596254993E+08,
2460637.500000000, A.D. 2024-Nov-23 00:00:00.0000, -3.455660212275417E+08, -4.664446776015237E+08, -1.640102018324563E+08,
2460644.500000000, A.D. 2024-Nov-30 00:00:00.0000, -3.396780635333475E+08, -4.714544557290176E+08, -1.640184678461241E+08,
2460651.500000000, A.D. 2024-Dec-07 00:00:00.0000, -3.337152185210043E+08, -4.763603186562953E+08, -1.639905555111057E+08,
2460658.500000000, A.D. 2024-Dec-14 00:00:00.0000, -3.276789867792924E+08, -4.811614578442964E+08, -1.639265642033283E+08,
2460665.500000000, A.D. 2024-Dec-21 00:00:00.0000, -3.215708644800816E+08, -4.858570718409883E+08, -1.638265945441360E+08,
2460672.500000000, A.D. 2024-Dec-28 00:00:00.0000, -3.153923456321481E+08, -4.904463669342078E+08, -1.636907483068695E+08,
2460679.500000000, A.D. 2025-Jan-04 00:00:00.0000, -3.091449221201333E+08, -4.949285581721015E+08, -1.635191285599068E+08,
2460686.500000000, A.D. 2025-Jan-11 00:00:00.0000, -3.028300833501335E+08, -4.993028690909264E+08, -1.633118397432234E+08,
2460693.500000000, A.D. 2025-Jan-18 00:00:00.0000, -2.964493164188003E+08, -5.035685310683987E+08, -1.630689876690133E+08,
2460700.500000000, A.D. 2025-Jan-25 00:00:00.0000, -2.900041065622287E+08, -5.077247827766112E+08, -1.627906795070378E+08,
2460707.500000000, A.D. 2025-Feb-01 00:00:00.0000, -2.834959376948824E+08, -5.117708697643151E+08, -1.624770237741871E+08,
2460714.500000000, A.D. 2025-Feb-08 00:00:00.0000, -2.769262929799938E+08, -5.157060441487347E+08, -1.621281303317562E+08,
$$EOE